{
  "type": "FeatureCollection",
  "features": [
    {
      "type": "Feature",
      "properties": {
        "norad_id": 66481,
        "name": "STARLINK-35698",
        "group": "last-30-days",
        "lat": 29.573364900157028,
        "lon": -127.01962557299703,
        "alt_km": 411.34788647823825,
        "timestamp": "2025-12-09T09:46:46.421375+00:00",
        "meta_object_name": "STARLINK-35698",
        "meta_object_id": "2025-262AB",
        "meta_epoch": "2025-12-08T22:00:03.000096",
        "meta_mean_motion": 15.50637499,
        "meta_eccentricity": 0.00015448,
        "meta_inclination": 43.0006,
        "meta_ra_of_asc_node": 93.3656,
        "meta_arg_of_pericenter": 271.9768,
        "meta_mean_anomaly": 358.7398,
        "meta_ephemeris_type": 0,
        "meta_classification_type": "U",
        "meta_norad_cat_id": 66481,
        "meta_element_set_no": 999,
        "meta_rev_at_epoch": 502,
        "meta_bstar": -0.0020819704,
        "meta_mean_motion_dot": -0.00120867,
        "meta_mean_motion_ddot": 0,
        "tle_line1": "1 66481U 25262AB  25342.91670139 -.00120867  00000+0 -20820-2 0  9993",
        "tle_line2": "2 66481  43.0006  93.3656 0001544 271.9768 358.7398 15.50637499  5025"
      },
      "geometry": {
        "type": "Point",
        "coordinates": [
          -127.01962557299703,
          29.573364900157028
        ]
      }
    },
    {
      "type": "Feature",
      "properties": {
        "norad_id": 66482,
        "name": "STARLINK-35648",
        "group": "last-30-days",
        "lat": 28.523331061644033,
        "lon": -125.18776790188673,
        "alt_km": 411.42433686485765,
        "timestamp": "2025-12-09T09:46:46.421386+00:00",
        "meta_object_name": "STARLINK-35648",
        "meta_object_id": "2025-262AC",
        "meta_epoch": "2025-12-08T22:00:03.000096",
        "meta_mean_motion": 15.50645382,
        "meta_eccentricity": 0.0001437,
        "meta_inclination": 43.0005,
        "meta_ra_of_asc_node": 93.361,
        "meta_arg_of_pericenter": 269.1649,
        "meta_mean_anomaly": 3.4659,
        "meta_ephemeris_type": 0,
        "meta_classification_type": "U",
        "meta_norad_cat_id": 66482,
        "meta_element_set_no": 999,
        "meta_rev_at_epoch": 486,
        "meta_bstar": -0.0023099521,
        "meta_mean_motion_dot": -0.0013388,
        "meta_mean_motion_ddot": 0,
        "tle_line1": "1 66482U 25262AC  25342.91670139 -.00133880  00000+0 -23100-2 0  9997",
        "tle_line2": "2 66482  43.0005  93.3610 0001437 269.1649   3.4659 15.50645382  4868"
      },
      "geometry": {
        "type": "Point",
        "coordinates": [
          -125.18776790188673,
          28.523331061644033
        ]
      }
    },
    {
      "type": "Feature",
      "properties": {
        "norad_id": 66483,
        "name": "STARLINK-35654",
        "group": "last-30-days",
        "lat": 27.44800581062688,
        "lon": -123.39087154098112,
        "alt_km": 411.69432433900874,
        "timestamp": "2025-12-09T09:46:46.421396+00:00",
        "meta_object_name": "STARLINK-35654",
        "meta_object_id": "2025-262AD",
        "meta_epoch": "2025-12-08T22:00:03.000096",
        "meta_mean_motion": 15.5059992,
        "meta_eccentricity": 0.00016011,
        "meta_inclination": 43.0007,
        "meta_ra_of_asc_node": 93.3558,
        "meta_arg_of_pericenter": 277.4575,
        "meta_mean_anomaly": 357.1148,
        "meta_ephemeris_type": 0,
        "meta_classification_type": "U",
        "meta_norad_cat_id": 66483,
        "meta_element_set_no": 999,
        "meta_rev_at_epoch": 502,
        "meta_bstar": -0.0011876446,
        "meta_mean_motion_dot": -0.00069453,
        "meta_mean_motion_ddot": 0,
        "tle_line1": "1 66483U 25262AD  25342.91670139 -.00069453  00000+0 -11876-2 0  9999",
        "tle_line2": "2 66483  43.0007  93.3558 0001601 277.4575 357.1148 15.50599920  5022"
      },
      "geometry": {
        "type": "Point",
        "coordinates": [
          -123.39087154098112,
          27.44800581062688
        ]
      }
    },
    {
      "type": "Feature",
      "properties": {
        "norad_id": 66484,
        "name": "STARLINK-35371",
        "group": "last-30-days",
        "lat": 26.352237113388814,
        "lon": -121.63229017041064,
        "alt_km": 411.8203272570181,
        "timestamp": "2025-12-09T09:46:46.421407+00:00",
        "meta_object_name": "STARLINK-35371",
        "meta_object_id": "2025-262AE",
        "meta_epoch": "2025-12-08T22:00:03.000096",
        "meta_mean_motion": 15.50632348,
        "meta_eccentricity": 0.00015598,
        "meta_inclination": 43.0005,
        "meta_ra_of_asc_node": 93.3517,
        "meta_arg_of_pericenter": 274.2589,
        "meta_mean_anomaly": 2.2078,
        "meta_ephemeris_type": 0,
        "meta_classification_type": "U",
        "meta_norad_cat_id": 66484,
        "meta_element_set_no": 999,
        "meta_rev_at_epoch": 502,
        "meta_bstar": -0.0019062174,
        "meta_mean_motion_dot": -0.00110813,
        "meta_mean_motion_ddot": 0,
        "tle_line1": "1 66484U 25262AE  25342.91670139 -.00110813  00000+0 -19062-2 0  9992",
        "tle_line2": "2 66484  43.0005  93.3517 0001559 274.2589   2.2078 15.50632348  5020"
      },
      "geometry": {
        "type": "Point",
        "coordinates": [
          -121.63229017041064,
          26.352237113388814
        ]
      }
    },
    {
      "type": "Feature",
      "properties": {
        "norad_id": 66485,
        "name": "STARLINK-34774",
        "group": "last-30-days",
        "lat": 11.194242915328337,
        "lon": 156.92866380037614,
        "alt_km": 419.88850760049354,
        "timestamp": "2025-12-09T09:46:46.421419+00:00",
        "meta_object_name": "STARLINK-34774",
        "meta_object_id": "2025-263A",
        "meta_epoch": "2025-12-08T22:00:03.000096",
        "meta_mean_motion": 15.50450257,
        "meta_eccentricity": 0.00014204,
        "meta_inclination": 43.0004,
        "meta_ra_of_asc_node": 147.5333,
        "meta_arg_of_pericenter": 285.0877,
        "meta_mean_anomaly": 230.798,
        "meta_ephemeris_type": 0,
        "meta_classification_type": "U",
        "meta_norad_cat_id": 66485,
        "meta_element_set_no": 999,
        "meta_rev_at_epoch": 502,
        "meta_bstar": -0.038749264,
        "meta_mean_motion_dot": -0.02019087,
        "meta_mean_motion_ddot": 0,
        "tle_line1": "1 66485U 25263A   25342.91670139 -.02019087  00000+0 -38749-1 0  9999",
        "tle_line2": "2 66485  43.0004 147.5333 0001420 285.0877 230.7980 15.50450257  5022"
      },
      "geometry": {
        "type": "Point",
        "coordinates": [
          156.92866380037614,
          11.194242915328337
        ]
      }
    },
    {
      "type": "Feature",
      "properties": {
        "norad_id": 66486,
        "name": "STARLINK-34844",
        "group": "last-30-days",
        "lat": 13.88059727191666,
        "lon": 160.03361167972378,
        "alt_km": 412.8322679315206,
        "timestamp": "2025-12-09T09:46:46.421430+00:00",
        "meta_object_name": "STARLINK-34844",
        "meta_object_id": "2025-263B",
        "meta_epoch": "2025-12-08T22:00:03.000096",
        "meta_mean_motion": 15.50590645,
        "meta_eccentricity": 0.00016439,
        "meta_inclination": 43.0004,
        "meta_ra_of_asc_node": 147.527,
        "meta_arg_of_pericenter": 290.0074,
        "meta_mean_anomaly": 227.8009,
        "meta_ephemeris_type": 0,
        "meta_classification_type": "U",
        "meta_norad_cat_id": 66486,
        "meta_element_set_no": 999,
        "meta_rev_at_epoch": 497,
        "meta_bstar": -0.0005305808,
        "meta_mean_motion_dot": -0.00031357,
        "meta_mean_motion_ddot": 0,
        "tle_line1": "1 66486U 25263B   25342.91670139 -.00031357  00000+0 -53058-3 0  9994",
        "tle_line2": "2 66486  43.0004 147.5270 0001643 290.0074 227.8009 15.50590645  4973"
      },
      "geometry": {
        "type": "Point",
        "coordinates": [
          160.03361167972378,
          13.88059727191666
        ]
      }
    },
    {
      "type": "Feature",
      "properties": {
        "norad_id": 66487,
        "name": "STARLINK-34733",
        "group": "last-30-days",
        "lat": 15.142601309796396,
        "lon": 161.53408710949122,
        "alt_km": 412.76117872539726,
        "timestamp": "2025-12-09T09:46:46.421442+00:00",
        "meta_object_name": "STARLINK-34733",
        "meta_object_id": "2025-263C",
        "meta_epoch": "2025-12-08T22:00:03.000096",
        "meta_mean_motion": 15.50592081,
        "meta_eccentricity": 0.0001586,
        "meta_inclination": 43.0005,
        "meta_ra_of_asc_node": 147.5232,
        "meta_arg_of_pericenter": 284.6843,
        "meta_mean_anomaly": 235.0445,
        "meta_ephemeris_type": 0,
        "meta_classification_type": "U",
        "meta_norad_cat_id": 66487,
        "meta_element_set_no": 999,
        "meta_rev_at_epoch": 502,
        "meta_bstar": -0.0004626931,
        "meta_mean_motion_dot": -0.00027403,
        "meta_mean_motion_ddot": 0,
        "tle_line1": "1 66487U 25263C   25342.91670139 -.00027403  00000+0 -46269-3 0  9998",
        "tle_line2": "2 66487  43.0005 147.5232 0001586 284.6843 235.0445 15.50592081  5020"
      },
      "geometry": {
        "type": "Point",
        "coordinates": [
          161.53408710949122,
          15.142601309796396
        ]
      }
    }
  ]
}